SL-3 R/B                
1 13154U 82039B   25310.90744731  .00003169  00000+0  19543-3 0  9995
2 13154  81.1811 357.2950 0032548   9.1438 351.0372 15.09227698363118
SL-3 R/B                
1 13403U 82079B   25310.88124973  .00006749  00000+0  28335-3 0  9999
2 13403  81.1469 337.9175 0024946 218.4051 141.5406 15.23021899358998
SL-14 R/B               
1 13553U 82092B   25310.86342742  .00000862  00000+0  94405-4 0  9996
2 13553  82.5671 256.2617 0020250 353.5487  31.2717 14.86491017310681
SL-3 R/B                
1 13819U 83010B   25310.51638733  .00017155  00000+0  39730-3 0  9994
2 13819  81.1021 152.7901 0018342 113.7313 246.5856 15.42134524338932
SL-3 R/B                
1 14208U 83075B   25310.94807966  .00013009  00000+0  38163-3 0  9994
2 14208  97.6098 306.2580 0021721 312.0668  47.8726 15.35075801311306
COSMOS 1536             
1 14699U 84013A   25310.78336595  .00012979  00000+0  56722-3 0  9994
2 14699  82.5477 229.8006 0015383   3.0577 357.0750 15.21870713253915
SL-14 R/B               
1 14820U 84027B   25310.59419686  .00000697  00000+0  77096-4 0  9999
2 14820  82.5435   0.4524 0018620  25.8375 334.3767 14.85818366229350
SL-8 R/B                
1 15483U 85006B   25310.93315940  .00000288  00000+0  10421-3 0  9993
2 15483  74.0430 127.0110 0017499  71.1077  79.1700 14.37687229136380
SL-12 R/B(2)            
1 15772U 85042D   25310.53420238  .00000231  00000+0  12551-3 0  9991
2 15772  71.1092 347.9102 0037025 314.6365 195.1779 14.21934299 96889
SL-14 R/B               
1 15945U 85069B   25310.48151973  .00000711  00000+0  77944-4 0  9994
2 15945  82.5249 140.7916 0017508 238.3141 121.6369 14.86258987154531
SL-16 R/B               
1 16182U 85097B   25310.71406396 -.00000163  00000+0 -57548-4 0  9998
2 16182  71.0047  39.4454 0005086  80.0749  73.5096 14.16576542 69810
SL-14 R/B               
1 16496U 86006B   25310.62297073  .00000946  00000+0  98574-4 0  9998
2 16496  82.5297  15.5304 0075827 321.5704  38.0125 14.86596304130920
