CCSDS_OMM_VERS = 2.0
CREATION_DATE  = 
ORIGINATOR     = 

OBJECT_NAME    = SL-3 R/B
OBJECT_ID      = 1982-039B
CENTER_NAME    = EARTH
REF_FRAME      = TEME
TIME_SYSTEM    = UTC
MEAN_ELEMENT_THEORY = SGP/SGP4

EPOCH          = 2025-11-06T21:46:43.447584
MEAN_MOTION    = 15.09227698
ECCENTRICITY   = .00325489
INCLINATION    = 81.1811
RA_OF_ASC_NODE = 357.2950
ARG_OF_PERICENTER = 9.1438
MEAN_ANOMALY   = 351.0372

EPHEMERIS_TYPE = 0
CLASSIFICATION_TYPE = U
NORAD_CAT_ID   = 13154
ELEMENT_SET_NO = 999
REV_AT_EPOCH   = 36311
BSTAR          = .1954316E-3
MEAN_MOTION_DOT = .3169E-4
MEAN_MOTION_DDOT = 0

CCSDS_OMM_VERS = 2.0
CREATION_DATE  = 
ORIGINATOR     = 

OBJECT_NAME    = SL-3 R/B
OBJECT_ID      = 1982-079B
CENTER_NAME    = EARTH
REF_FRAME      = TEME
TIME_SYSTEM    = UTC
MEAN_ELEMENT_THEORY = SGP/SGP4

EPOCH          = 2025-11-06T21:08:59.976672
MEAN_MOTION    = 15.23021899
ECCENTRICITY   = .00249464
INCLINATION    = 81.1469
RA_OF_ASC_NODE = 337.9175
ARG_OF_PERICENTER = 218.4051
MEAN_ANOMALY   = 141.5406

EPHEMERIS_TYPE = 0
CLASSIFICATION_TYPE = U
NORAD_CAT_ID   = 13403
ELEMENT_SET_NO = 999
REV_AT_EPOCH   = 35899
BSTAR          = .28334591E-3
MEAN_MOTION_DOT = .6749E-4
MEAN_MOTION_DDOT = 0

CCSDS_OMM_VERS = 2.0
CREATION_DATE  = 
ORIGINATOR     = 

OBJECT_NAME    = SL-14 R/B
OBJECT_ID      = 1982-092B
CENTER_NAME    = EARTH
REF_FRAME      = TEME
TIME_SYSTEM    = UTC
MEAN_ELEMENT_THEORY = SGP/SGP4

EPOCH          = 2025-11-06T20:43:20.129088
MEAN_MOTION    = 14.86491017
ECCENTRICITY   = .00202506
INCLINATION    = 82.5671
RA_OF_ASC_NODE = 256.2617
ARG_OF_PERICENTER = 353.5487
MEAN_ANOMALY   = 31.2717

EPHEMERIS_TYPE = 0
CLASSIFICATION_TYPE = U
NORAD_CAT_ID   = 13553
ELEMENT_SET_NO = 999
REV_AT_EPOCH   = 31068
BSTAR          = .94405324E-4
MEAN_MOTION_DOT = .862E-5
MEAN_MOTION_DDOT = 0

CCSDS_OMM_VERS = 2.0
CREATION_DATE  = 
ORIGINATOR     = 

OBJECT_NAME    = SL-3 R/B
OBJECT_ID      = 1983-010B
CENTER_NAME    = EARTH
REF_FRAME      = TEME
TIME_SYSTEM    = UTC
MEAN_ELEMENT_THEORY = SGP/SGP4

EPOCH          = 2025-11-06T12:23:35.865312
MEAN_MOTION    = 15.42134524
ECCENTRICITY   = .00183426
INCLINATION    = 81.1021
RA_OF_ASC_NODE = 152.7901
ARG_OF_PERICENTER = 113.7313
MEAN_ANOMALY   = 246.5856

EPHEMERIS_TYPE = 0
CLASSIFICATION_TYPE = U
NORAD_CAT_ID   = 13819
ELEMENT_SET_NO = 999
REV_AT_EPOCH   = 33893
BSTAR          = .39730271E-3
MEAN_MOTION_DOT = .17155E-3
MEAN_MOTION_DDOT = 0

CCSDS_OMM_VERS = 2.0
CREATION_DATE  = 
ORIGINATOR     = 

OBJECT_NAME    = SL-3 R/B
OBJECT_ID      = 1983-075B
CENTER_NAME    = EARTH
REF_FRAME      = TEME
TIME_SYSTEM    = UTC
MEAN_ELEMENT_THEORY = SGP/SGP4

EPOCH          = 2025-11-06T22:45:14.082624
MEAN_MOTION    = 15.35075801
ECCENTRICITY   = .00217212
INCLINATION    = 97.6098
RA_OF_ASC_NODE = 306.2580
ARG_OF_PERICENTER = 312.0668
MEAN_ANOMALY   = 47.8726

EPHEMERIS_TYPE = 0
CLASSIFICATION_TYPE = U
NORAD_CAT_ID   = 14208
ELEMENT_SET_NO = 999
REV_AT_EPOCH   = 31130
BSTAR          = .38162804E-3
MEAN_MOTION_DOT = .13009E-3
MEAN_MOTION_DDOT = 0

CCSDS_OMM_VERS = 2.0
CREATION_DATE  = 
ORIGINATOR     = 

OBJECT_NAME    = COSMOS 1536
OBJECT_ID      = 1984-013A
CENTER_NAME    = EARTH
REF_FRAME      = TEME
TIME_SYSTEM    = UTC
MEAN_ELEMENT_THEORY = SGP/SGP4

EPOCH          = 2025-11-06T18:48:02.818080
MEAN_MOTION    = 15.21870713
ECCENTRICITY   = .00153833
INCLINATION    = 82.5477
RA_OF_ASC_NODE = 229.8006
ARG_OF_PERICENTER = 3.0577
MEAN_ANOMALY   = 357.0750

EPHEMERIS_TYPE = 0
CLASSIFICATION_TYPE = U
NORAD_CAT_ID   = 14699
ELEMENT_SET_NO = 999
REV_AT_EPOCH   = 25391
BSTAR          = .56722043E-3
MEAN_MOTION_DOT = .12979E-3
MEAN_MOTION_DDOT = 0

CCSDS_OMM_VERS = 2.0
CREATION_DATE  = 
ORIGINATOR     = 

OBJECT_NAME    = SL-14 R/B
OBJECT_ID      = 1984-027B
CENTER_NAME    = EARTH
REF_FRAME      = TEME
TIME_SYSTEM    = UTC
MEAN_ELEMENT_THEORY = SGP/SGP4

EPOCH          = 2025-11-06T14:15:38.608704
MEAN_MOTION    = 14.85818366
ECCENTRICITY   = .00186206
INCLINATION    = 82.5435
RA_OF_ASC_NODE = 0.4524
ARG_OF_PERICENTER = 25.8375
MEAN_ANOMALY   = 334.3767

EPHEMERIS_TYPE = 0
CLASSIFICATION_TYPE = U
NORAD_CAT_ID   = 14820
ELEMENT_SET_NO = 999
REV_AT_EPOCH   = 22935
BSTAR          = .77096429E-4
MEAN_MOTION_DOT = .697E-5
MEAN_MOTION_DDOT = 0

CCSDS_OMM_VERS = 2.0
CREATION_DATE  = 
ORIGINATOR     = 

OBJECT_NAME    = SL-8 R/B
OBJECT_ID      = 1985-006B
CENTER_NAME    = EARTH
REF_FRAME      = TEME
TIME_SYSTEM    = UTC
MEAN_ELEMENT_THEORY = SGP/SGP4

EPOCH          = 2025-11-06T22:23:44.972160
MEAN_MOTION    = 14.37687229
ECCENTRICITY   = .00174997
INCLINATION    = 74.0430
RA_OF_ASC_NODE = 127.0110
ARG_OF_PERICENTER = 71.1077
MEAN_ANOMALY   = 79.1700

EPHEMERIS_TYPE = 0
CLASSIFICATION_TYPE = U
NORAD_CAT_ID   = 15483
ELEMENT_SET_NO = 999
REV_AT_EPOCH   = 13638
BSTAR          = .10420837E-3
MEAN_MOTION_DOT = .288E-5
MEAN_MOTION_DDOT = 0

CCSDS_OMM_VERS = 2.0
CREATION_DATE  = 
ORIGINATOR     = 

OBJECT_NAME    = SL-12 R/B(2)
OBJECT_ID      = 1985-042D
CENTER_NAME    = EARTH
REF_FRAME      = TEME
TIME_SYSTEM    = UTC
MEAN_ELEMENT_THEORY = SGP/SGP4

EPOCH          = 2025-11-06T12:49:15.085632
MEAN_MOTION    = 14.21934299
ECCENTRICITY   = .00370256
INCLINATION    = 71.1092
RA_OF_ASC_NODE = 347.9102
ARG_OF_PERICENTER = 314.6365
MEAN_ANOMALY   = 195.1779

EPHEMERIS_TYPE = 0
CLASSIFICATION_TYPE = U
NORAD_CAT_ID   = 15772
ELEMENT_SET_NO = 999
REV_AT_EPOCH   = 9688
BSTAR          = .12551306E-3
MEAN_MOTION_DOT = .231E-5
MEAN_MOTION_DDOT = 0

CCSDS_OMM_VERS = 2.0
CREATION_DATE  = 
ORIGINATOR     = 

OBJECT_NAME    = SL-14 R/B
OBJECT_ID      = 1985-069B
CENTER_NAME    = EARTH
REF_FRAME      = TEME
TIME_SYSTEM    = UTC
MEAN_ELEMENT_THEORY = SGP/SGP4

EPOCH          = 2025-11-06T11:33:23.304672
MEAN_MOTION    = 14.86258987
ECCENTRICITY   = .0017508
INCLINATION    = 82.5249
RA_OF_ASC_NODE = 140.7916
ARG_OF_PERICENTER = 238.3141
MEAN_ANOMALY   = 121.6369

EPHEMERIS_TYPE = 0
CLASSIFICATION_TYPE = U
NORAD_CAT_ID   = 15945
ELEMENT_SET_NO = 999
REV_AT_EPOCH   = 15453
BSTAR          = .77944028E-4
MEAN_MOTION_DOT = .711E-5
MEAN_MOTION_DDOT = 0

CCSDS_OMM_VERS = 2.0
CREATION_DATE  = 
ORIGINATOR     = 

OBJECT_NAME    = SL-16 R/B
OBJECT_ID      = 1985-097B
CENTER_NAME    = EARTH
REF_FRAME      = TEME
TIME_SYSTEM    = UTC
MEAN_ELEMENT_THEORY = SGP/SGP4

EPOCH          = 2025-11-06T17:08:15.126144
MEAN_MOTION    = 14.16576542
ECCENTRICITY   = .00050864
INCLINATION    = 71.0047
RA_OF_ASC_NODE = 39.4454
ARG_OF_PERICENTER = 80.0749
MEAN_ANOMALY   = 73.5096

EPHEMERIS_TYPE = 0
CLASSIFICATION_TYPE = U
NORAD_CAT_ID   = 16182
ELEMENT_SET_NO = 999
REV_AT_EPOCH   = 6981
BSTAR          = -.57548037E-4
MEAN_MOTION_DOT = -.163E-5
MEAN_MOTION_DDOT = 0

CCSDS_OMM_VERS = 2.0
CREATION_DATE  = 
ORIGINATOR     = 

OBJECT_NAME    = SL-14 R/B
OBJECT_ID      = 1986-006B
CENTER_NAME    = EARTH
REF_FRAME      = TEME
TIME_SYSTEM    = UTC
MEAN_ELEMENT_THEORY = SGP/SGP4

EPOCH          = 2025-11-06T14:57:04.671072
MEAN_MOTION    = 14.86596304
ECCENTRICITY   = .00758273
INCLINATION    = 82.5297
RA_OF_ASC_NODE = 15.5304
ARG_OF_PERICENTER = 321.5704
MEAN_ANOMALY   = 38.0125

EPHEMERIS_TYPE = 0
CLASSIFICATION_TYPE = U
NORAD_CAT_ID   = 16496
ELEMENT_SET_NO = 999
REV_AT_EPOCH   = 13092
BSTAR          = .98573525E-4
MEAN_MOTION_DOT = .946E-5
MEAN_MOTION_DDOT = 0

